IRIDIUM 112             
1 41925U 17003J   25295.71127470  .00000459  00000+0  15681-3 0  9995
2 41925  86.4032 187.5104 0002279  86.8310 273.3147 14.34219373459235
IRIDIUM 111             
1 41926U 17003K   25295.41950860  .00000468  00000+0  16018-3 0  9995
2 41926  86.4033 187.6975 0002161  81.1858 278.9582 14.34222413459175
IRIDIUM 113             
1 42803U 17039A   25295.39948235 -.00000249  00000+0 -96084-4 0  9990
2 42803  86.3962  61.5500 0002125  93.3953 266.7486 14.34216384437102
IRIDIUM 123             
1 42804U 17039B   25295.51072552  .00000072  00000+0  18754-4 0  9995
2 42804  86.3920  93.0009 0002073  82.1361 278.0070 14.34218541435887
IRIDIUM 120             
1 42805U 17039C   25295.39313834  .00000393  00000+0  13328-3 0  9990
2 42805  86.3953  61.3654 0001664  93.4921 266.6465 14.34216890437091
IRIDIUM 115             
1 42806U 17039D   25295.38312611  .00000727  00000+0  21025-3 0  9996
2 42806  86.4490  61.4657 0001909  76.6147 283.5267 14.43284636439967
IRIDIUM 118             
1 42807U 17039E   25295.47267272 -.00000041  00000+0 -21611-4 0  9992
2 42807  86.3922  93.0163 0002176  91.9889 268.1556 14.34217304435874
IRIDIUM 117             
1 42808U 17039F   25295.49170006 -.00000139  00000+0 -56662-4 0  9995
2 42808  86.3921  92.9682 0002022  83.9438 276.1988 14.34216875435903
